CCSDS_OMM_VERS = 2.0
CREATION_DATE  = 
ORIGINATOR     = 

OBJECT_NAME    = STARLINK-36673
OBJECT_ID      = 2026-022N
CENTER_NAME    = EARTH
REF_FRAME      = TEME
TIME_SYSTEM    = UTC
MEAN_ELEMENT_THEORY = SGP/SGP4

EPOCH          = 2026-02-12T06:00:02.999808
MEAN_MOTION    = 15.88792415
ECCENTRICITY   = .00011155
INCLINATION    = 97.2813
RA_OF_ASC_NODE = 75.9521
ARG_OF_PERICENTER = 84.4229
MEAN_ANOMALY   = 248.2147

EPHEMERIS_TYPE = 0
CLASSIFICATION_TYPE = U
NORAD_CAT_ID   = 67660
ELEMENT_SET_NO = 999
REV_AT_EPOCH   = 280
BSTAR          = -.70561279E-2
MEAN_MOTION_DOT = -.1719414E-1
MEAN_MOTION_DDOT = 0

CCSDS_OMM_VERS = 2.0
CREATION_DATE  = 
ORIGINATOR     = 

OBJECT_NAME    = STARLINK-36674
OBJECT_ID      = 2026-022P
CENTER_NAME    = EARTH
REF_FRAME      = TEME
TIME_SYSTEM    = UTC
MEAN_ELEMENT_THEORY = SGP/SGP4

EPOCH          = 2026-02-12T06:00:02.999808
MEAN_MOTION    = 15.88954172
ECCENTRICITY   = .00011581
INCLINATION    = 97.2814
RA_OF_ASC_NODE = 75.9539
ARG_OF_PERICENTER = 93.0776
MEAN_ANOMALY   = 243.0420

EPHEMERIS_TYPE = 0
CLASSIFICATION_TYPE = U
NORAD_CAT_ID   = 67661
ELEMENT_SET_NO = 999
REV_AT_EPOCH   = 280
BSTAR          = -.70147723E-2
MEAN_MOTION_DOT = -.1722849E-1
MEAN_MOTION_DDOT = 0

CCSDS_OMM_VERS = 2.0
CREATION_DATE  = 
ORIGINATOR     = 

OBJECT_NAME    = STARLINK-36700
OBJECT_ID      = 2026-022Q
CENTER_NAME    = EARTH
REF_FRAME      = TEME
TIME_SYSTEM    = UTC
MEAN_ELEMENT_THEORY = SGP/SGP4

EPOCH          = 2026-02-12T06:00:02.999808
MEAN_MOTION    = 15.89360119
ECCENTRICITY   = .00011214
INCLINATION    = 97.2808
RA_OF_ASC_NODE = 75.9575
ARG_OF_PERICENTER = 83.9239
MEAN_ANOMALY   = 261.0712

EPHEMERIS_TYPE = 0
CLASSIFICATION_TYPE = U
NORAD_CAT_ID   = 67662
ELEMENT_SET_NO = 999
REV_AT_EPOCH   = 280
BSTAR          = -.68192312E-2
MEAN_MOTION_DOT = -.1711283E-1
MEAN_MOTION_DDOT = 0

CCSDS_OMM_VERS = 2.0
CREATION_DATE  = 
ORIGINATOR     = 

OBJECT_NAME    = STARLINK-36675
OBJECT_ID      = 2026-022R
CENTER_NAME    = EARTH
REF_FRAME      = TEME
TIME_SYSTEM    = UTC
MEAN_ELEMENT_THEORY = SGP/SGP4

EPOCH          = 2026-02-12T06:00:02.999808
MEAN_MOTION    = 15.89159524
ECCENTRICITY   = .00011535
INCLINATION    = 97.2810
RA_OF_ASC_NODE = 75.9555
ARG_OF_PERICENTER = 85.5600
MEAN_ANOMALY   = 255.0451

EPHEMERIS_TYPE = 0
CLASSIFICATION_TYPE = U
NORAD_CAT_ID   = 67663
ELEMENT_SET_NO = 999
REV_AT_EPOCH   = 280
BSTAR          = -.69257015E-2
MEAN_MOTION_DOT = -.1719256E-1
MEAN_MOTION_DDOT = 0

CCSDS_OMM_VERS = 2.0
CREATION_DATE  = 
ORIGINATOR     = 

OBJECT_NAME    = STARLINK-36404
OBJECT_ID      = 2026-022S
CENTER_NAME    = EARTH
REF_FRAME      = TEME
TIME_SYSTEM    = UTC
MEAN_ELEMENT_THEORY = SGP/SGP4

EPOCH          = 2026-02-12T06:00:02.999808
MEAN_MOTION    = 15.89563136
ECCENTRICITY   = .00011497
INCLINATION    = 97.2801
RA_OF_ASC_NODE = 75.9585
ARG_OF_PERICENTER = 76.9580
MEAN_ANOMALY   = 272.5047

EPHEMERIS_TYPE = 0
CLASSIFICATION_TYPE = U
NORAD_CAT_ID   = 67664
ELEMENT_SET_NO = 999
REV_AT_EPOCH   = 277
BSTAR          = -.67242747E-2
MEAN_MOTION_DOT = -.1938361E-1
MEAN_MOTION_DDOT = .10029497E-2

CCSDS_OMM_VERS = 2.0
CREATION_DATE  = 
ORIGINATOR     = 

OBJECT_NAME    = STARLINK-36399
OBJECT_ID      = 2026-022T
CENTER_NAME    = EARTH
REF_FRAME      = TEME
TIME_SYSTEM    = UTC
MEAN_ELEMENT_THEORY = SGP/SGP4

EPOCH          = 2026-02-12T06:00:02.999808
MEAN_MOTION    = 15.89709085
ECCENTRICITY   = .00010752
INCLINATION    = 97.2801
RA_OF_ASC_NODE = 75.9605
ARG_OF_PERICENTER = 80.4295
MEAN_ANOMALY   = 272.2896

EPHEMERIS_TYPE = 0
CLASSIFICATION_TYPE = U
NORAD_CAT_ID   = 67665
ELEMENT_SET_NO = 999
REV_AT_EPOCH   = 277
BSTAR          = -.6660858E-2
MEAN_MOTION_DOT = -.1934172E-1
MEAN_MOTION_DDOT = .10003421E-2

CCSDS_OMM_VERS = 2.0
CREATION_DATE  = 
ORIGINATOR     = 

OBJECT_NAME    = STARLINK-36365
OBJECT_ID      = 2026-022U
CENTER_NAME    = EARTH
REF_FRAME      = TEME
TIME_SYSTEM    = UTC
MEAN_ELEMENT_THEORY = SGP/SGP4

EPOCH          = 2026-02-12T06:00:02.999808
MEAN_MOTION    = 15.89948953
ECCENTRICITY   = .00011231
INCLINATION    = 97.2801
RA_OF_ASC_NODE = 75.9629
ARG_OF_PERICENTER = 78.9419
MEAN_ANOMALY   = 278.7656

EPHEMERIS_TYPE = 0
CLASSIFICATION_TYPE = U
NORAD_CAT_ID   = 67666
ELEMENT_SET_NO = 999
REV_AT_EPOCH   = 280
BSTAR          = -.6590263E-2
MEAN_MOTION_DOT = -.1936778E-1
MEAN_MOTION_DDOT = .10052619E-2

CCSDS_OMM_VERS = 2.0
CREATION_DATE  = 
ORIGINATOR     = 

OBJECT_NAME    = STARLINK-36622
OBJECT_ID      = 2026-022V
CENTER_NAME    = EARTH
REF_FRAME      = TEME
TIME_SYSTEM    = UTC
MEAN_ELEMENT_THEORY = SGP/SGP4

EPOCH          = 2026-02-12T06:00:02.999808
MEAN_MOTION    = 15.90193706
ECCENTRICITY   = .00011099
INCLINATION    = 97.2797
RA_OF_ASC_NODE = 75.9647
ARG_OF_PERICENTER = 78.9480
MEAN_ANOMALY   = 283.9954

EPHEMERIS_TYPE = 0
CLASSIFICATION_TYPE = U
NORAD_CAT_ID   = 67667
ELEMENT_SET_NO = 999
REV_AT_EPOCH   = 280
BSTAR          = -.64603646E-2
MEAN_MOTION_DOT = -.1922252E-1
MEAN_MOTION_DDOT = .99361701E-3

CCSDS_OMM_VERS = 2.0
CREATION_DATE  = 
ORIGINATOR     = 

OBJECT_NAME    = STARLINK-36625
OBJECT_ID      = 2026-022W
CENTER_NAME    = EARTH
REF_FRAME      = TEME
TIME_SYSTEM    = UTC
MEAN_ELEMENT_THEORY = SGP/SGP4

EPOCH          = 2026-02-12T06:00:02.999808
MEAN_MOTION    = 15.90472502
ECCENTRICITY   = .00010748
INCLINATION    = 97.2793
RA_OF_ASC_NODE = 75.9670
ARG_OF_PERICENTER = 82.1173
MEAN_ANOMALY   = 286.5035

EPHEMERIS_TYPE = 0
CLASSIFICATION_TYPE = U
NORAD_CAT_ID   = 67668
ELEMENT_SET_NO = 999
REV_AT_EPOCH   = 280
BSTAR          = -.63759479E-2
MEAN_MOTION_DOT = -.1923933E-1
MEAN_MOTION_DDOT = .99802273E-3

CCSDS_OMM_VERS = 2.0
CREATION_DATE  = 
ORIGINATOR     = 

OBJECT_NAME    = STARLINK-36639
OBJECT_ID      = 2026-022X
CENTER_NAME    = EARTH
REF_FRAME      = TEME
TIME_SYSTEM    = UTC
MEAN_ELEMENT_THEORY = SGP/SGP4

EPOCH          = 2026-02-12T06:00:02.999808
MEAN_MOTION    = 15.90728977
ECCENTRICITY   = .00011885
INCLINATION    = 97.2794
RA_OF_ASC_NODE = 75.9699
ARG_OF_PERICENTER = 75.7481
MEAN_ANOMALY   = 298.2989

EPHEMERIS_TYPE = 0
CLASSIFICATION_TYPE = U
NORAD_CAT_ID   = 67669
ELEMENT_SET_NO = 999
REV_AT_EPOCH   = 280
BSTAR          = -.62702724E-2
MEAN_MOTION_DOT = -.1916825E-1
MEAN_MOTION_DDOT = .99368932E-3

CCSDS_OMM_VERS = 2.0
CREATION_DATE  = 
ORIGINATOR     = 

OBJECT_NAME    = STARLINK-36596
OBJECT_ID      = 2026-022Y
CENTER_NAME    = EARTH
REF_FRAME      = TEME
TIME_SYSTEM    = UTC
MEAN_ELEMENT_THEORY = SGP/SGP4

EPOCH          = 2026-02-12T06:00:02.999808
MEAN_MOTION    = 15.90940889
ECCENTRICITY   = .00011354
INCLINATION    = 97.2789
RA_OF_ASC_NODE = 75.9713
ARG_OF_PERICENTER = 81.7968
MEAN_ANOMALY   = 296.7501

EPHEMERIS_TYPE = 0
CLASSIFICATION_TYPE = U
NORAD_CAT_ID   = 67670
ELEMENT_SET_NO = 999
REV_AT_EPOCH   = 280
BSTAR          = -.61908081E-2
MEAN_MOTION_DOT = -.1912988E-1
MEAN_MOTION_DDOT = .99208265E-3

CCSDS_OMM_VERS = 2.0
CREATION_DATE  = 
ORIGINATOR     = 

OBJECT_NAME    = STARLINK-36297
OBJECT_ID      = 2026-022Z
CENTER_NAME    = EARTH
REF_FRAME      = TEME
TIME_SYSTEM    = UTC
MEAN_ELEMENT_THEORY = SGP/SGP4

EPOCH          = 2026-02-12T06:00:02.999808
MEAN_MOTION    = 15.91288532
ECCENTRICITY   = .00011973
INCLINATION    = 97.2784
RA_OF_ASC_NODE = 75.9743
ARG_OF_PERICENTER = 71.2524
MEAN_ANOMALY   = 314.8069

EPHEMERIS_TYPE = 0
CLASSIFICATION_TYPE = U
NORAD_CAT_ID   = 67671
ELEMENT_SET_NO = 999
REV_AT_EPOCH   = 280
BSTAR          = -.60595533E-2
MEAN_MOTION_DOT = -.1905892E-1
MEAN_MOTION_DDOT = .98867618E-3

