STARLINK-36673          
1 67660U 26022N   26043.25003472 -.01719414  00000+0 -70561-2 0  9994
2 67660  97.2813  75.9521 0001115  84.4229 248.2147 15.88792415  2801
STARLINK-36674          
1 67661U 26022P   26043.25003472 -.01722849  00000+0 -70148-2 0  9992
2 67661  97.2814  75.9539 0001158  93.0776 243.0420 15.88954172  2809
STARLINK-36700          
1 67662U 26022Q   26043.25003472 -.01711283  00000+0 -68192-2 0  9999
2 67662  97.2808  75.9575 0001121  83.9239 261.0712 15.89360119  2802
STARLINK-36675          
1 67663U 26022R   26043.25003472 -.01719256  00000+0 -69257-2 0  9991
2 67663  97.2810  75.9555 0001153  85.5600 255.0451 15.89159524  2808
STARLINK-36404          
1 67664U 26022S   26043.25003472 -.01938361  10029-2 -67243-2 0  9990
2 67664  97.2801  75.9585 0001149  76.9580 272.5047 15.89563136  2777
STARLINK-36399          
1 67665U 26022T   26043.25003472 -.01934172  10003-2 -66609-2 0  9994
2 67665  97.2801  75.9605 0001075  80.4295 272.2896 15.89709085  2776
STARLINK-36365          
1 67666U 26022U   26043.25003472 -.01936778  10053-2 -65903-2 0  9990
2 67666  97.2801  75.9629 0001123  78.9419 278.7656 15.89948953  2805
STARLINK-36622          
1 67667U 26022V   26043.25003472 -.01922252  99362-3 -64604-2 0  9991
2 67667  97.2797  75.9647 0001109  78.9480 283.9954 15.90193706  2801
STARLINK-36625          
1 67668U 26022W   26043.25003472 -.01923933  99802-3 -63759-2 0  9998
2 67668  97.2793  75.9670 0001074  82.1173 286.5035 15.90472502  2804
STARLINK-36639          
1 67669U 26022X   26043.25003472 -.01916825  99369-3 -62703-2 0  9997
2 67669  97.2794  75.9699 0001188  75.7481 298.2989 15.90728977  2801
STARLINK-36596          
1 67670U 26022Y   26043.25003472 -.01912988  99208-3 -61908-2 0  9993
2 67670  97.2789  75.9713 0001135  81.7968 296.7501 15.90940889  2804
STARLINK-36297          
1 67671U 26022Z   26043.25003472 -.01905892  98868-3 -60596-2 0  9993
2 67671  97.2784  75.9743 0001197  71.2524 314.8069 15.91288532  2805
